[{"OBJECT_NAME":"STARLINK-6309","OBJECT_ID":"2023-065AJ","EPOCH":"2026-03-09T10:18:32.815872","MEAN_MOTION":15.02536297,"ECCENTRICITY":0.00010926,"INCLINATION":43,"RA_OF_ASC_NODE":224.9355,"ARG_OF_PERICENTER":233.7092,"MEAN_ANOMALY":126.3649,"EPHEMERIS_TYPE":0,"CLASSIFICATION_TYPE":"U","NORAD_CAT_ID":56535,"ELEMENT_SET_NO":999,"REV_AT_EPOCH":15643,"BSTAR":1.0164075e-5,"MEAN_MOTION_DOT":-6.6e-7,"MEAN_MOTION_DDOT":0},{"OBJECT_NAME":"KUIPER-00232","OBJECT_ID":"2025-301R","EPOCH":"2026-03-09T22:00:01.999584","MEAN_MOTION":15.06812029,"ECCENTRICITY":0.0002965,"INCLINATION":51.8873,"RA_OF_ASC_NODE":65.5535,"ARG_OF_PERICENTER":139.5556,"MEAN_ANOMALY":115.4886,"EPHEMERIS_TYPE":0,"CLASSIFICATION_TYPE":"U","NORAD_CAT_ID":67148,"ELEMENT_SET_NO":999,"REV_AT_EPOCH":493,"BSTAR":-0.072865786,"MEAN_MOTION_DOT":-0.01020247,"MEAN_MOTION_DDOT":0}]
